STARLINK-36405          
1 67921U 26036T   26062.58336806 -.01595941  00000+0 -74302-2 0  9990
2 67921  42.9944 287.0631 0001810 264.8746 136.5976 15.85201325  2666
STARLINK-36383          
1 67922U 26036U   26062.58336806 -.01600552  00000+0 -74042-2 0  9997
2 67922  42.9946 287.0535 0001749 264.9278 140.3660 15.85341101  2664
STARLINK-36406          
1 67923U 26036V   26062.58336806 -.01598573  00000+0 -73334-2 0  9990
2 67923  42.9945 287.0442 0001796 269.4151 139.5670 15.85507184  2669
STARLINK-36714          
1 67924U 26036W   26062.58336806 -.01600172  00000+0 -72817-2 0  9995
2 67924  42.9946 287.0349 0001731 268.4623 144.1781 15.85675168  2662
STARLINK-36726          
1 67925U 26036X   26062.58336806 -.01596773  00000+0 -71984-2 0  9991
2 67925  42.9945 287.0260 0001654 268.0038 148.1776 15.85860224  2661
STARLINK-36758          
1 67926U 26036Y   26062.58336806 -.01593405  00000+0 -71280-2 0  9990
2 67926  42.9944 287.0166 0001716 265.9833 153.8552 15.86009570  2669
STARLINK-36728          
1 67927U 26036Z   26062.58336806 -.01596884  00000+0 -70513-2 0  9993
2 67927  42.9944 286.9976 0001740 272.3484 154.9194 15.86278378  2666
STARLINK-36771          
1 67928U 26036AA  26062.58336806 -.01600064  00000+0 -71229-2 0  9995
2 67928  42.9943 287.0066 0001659 271.1497 152.5349 15.86121201  2666
STARLINK-36809          
1 67929U 26036AB  26062.58336806 -.01597761  00000+0 -70083-2 0  9992
2 67929  42.9943 286.9885 0001685 265.4377 165.4966 15.86414982  2665
STARLINK-36865          
1 67930U 26036AC  26062.58336806 -.01601371  00000+0 -69330-2 0  9990
2 67930  42.9942 286.9699 0001732 268.0620 170.1906 15.86683768  2669
STARLINK-36781          
1 67931U 26036AD  26062.58336806 -.01598920  00000+0 -69658-2 0  9999
2 67931  42.9944 286.9793 0001683 270.4041 164.1743 15.86554268  2660
